ONEWEB-0220             
1 48232U 21031Y   23311.48211892  .00000088  00000+0  20336-3 0  9993
2 48232  87.8941 119.3609 0001634 105.1388 254.9923 13.14361798123246
ONEWEB-0165             
1 48233U 21031Z   23310.90219591 -.00000068  00000+0 -21801-3 0  9992
2 48233  87.8931 119.4868 0001497  98.9142 261.2157 13.14550110123123
ONEWEB-0199             
1 48234U 21031AA  23310.88577232 -.00000161  00000+0 -46969-3 0  9995
2 48234  87.8933 119.4618 0001483  97.5244 262.6054 13.14358386123023
ONEWEB-0203             
1 48235U 21031AB  23311.02798228 -.00000220  00000+0 -63012-3 0  9997
2 48235  87.8936 119.4330 0001332  76.3086 283.8192 13.14157895123053
ONEWEB-0197             
1 48236U 21031AC  23310.93779275  .00000214  00000+0  54202-3 0  9990
2 48236  87.8935 119.4591 0001769  91.9277 268.2055 13.14586039122950
ONEWEB-0194             
1 48237U 21031AD  23311.43952708 -.00000005  00000+0 -48118-4 0  9991
2 48237  87.8937 119.3489 0001458  77.7770 282.3523 13.14455281123191
ONEWEB-0193             
1 48238U 21031AE  23311.45583880  .00000278  00000+0  71316-3 0  9990
2 48238  87.8933 119.3543 0001354  92.1781 267.9503 13.14647837123149
ONEWEB-0191             
1 48239U 21031AF  23310.93392284  .00000352  00000+0  91332-3 0  9992
2 48239  87.8941 119.4425 0001417  86.9428 273.1864 13.14552615122932
